[{"OBJECT_NAME":"STARLINK-31002","OBJECT_ID":"2023-186Y","EPOCH":"2026-03-09T00:54:12.084768","MEAN_MOTION":15.27578882,"ECCENTRICITY":4.64e-5,"INCLINATION":43.0003,"RA_OF_ASC_NODE":67.5594,"ARG_OF_PERICENTER":274.1731,"MEAN_ANOMALY":85.9067,"EPHEMERIS_TYPE":0,"CLASSIFICATION_TYPE":"U","NORAD_CAT_ID":58495,"ELEMENT_SET_NO":999,"REV_AT_EPOCH":12595,"BSTAR":0.00010562756,"MEAN_MOTION_DOT":2.646e-5,"MEAN_MOTION_DDOT":0},{"OBJECT_NAME":"TRANSPORTER-1 OBJECT AA","OBJECT_ID":"2021-006AA","EPOCH":"2026-03-09T22:58:14.761920","MEAN_MOTION":15.29982294,"ECCENTRICITY":0.00086604,"INCLINATION":97.2381,"RA_OF_ASC_NODE":112.457,"ARG_OF_PERICENTER":185.709,"MEAN_ANOMALY":174.4054,"EPHEMERIS_TYPE":0,"CLASSIFICATION_TYPE":"U","NORAD_CAT_ID":47437,"ELEMENT_SET_NO":999,"REV_AT_EPOCH":28414,"BSTAR":0.0002197941,"MEAN_MOTION_DOT":6.312e-5,"MEAN_MOTION_DDOT":0}]
